1 02253U 66056A   98119.06690518 +.00000002 +00000-0 +10000-3 0  9994
2 02253 085.5182 319.4996 0995390 350.1038 008.1442 08.11470926481087
1 02253U 66056A   98119.68321937  .00000002  00000-0  10000-3 0  9998
2 02253 085.5151 319.4128 0994750 349.5920 008.5603 08.11470983481133
1 02253U 66056A   98120.05300661 +.00000002 +00000-0 +10000-3 0  9992
2 02253 085.5146 319.3607 0994258 349.2902 008.8116 08.11471628481160
1 02253U 66056A   98121.03910347 +.00000002 +00000-0 +10000-3 0  9999
2 02253 085.4986 319.2201 0989916 348.5352 009.4388 08.11473729481247
1 02253U 66056A   98122.02519500 +.00000002 +00000-0 +10000-3 0  9995
2 02253 085.4968 319.0809 0987696 347.7032 010.1242 08.11475196481325
1 02253U 66056A   98122.51825070  .00000002  00000-0  10000-3 0  9991
2 02253 085.4966 319.0110 0986904 347.3000 010.4417 08.11473574481369
1 02253U 66056A   98123.01130544 +.00000002 +00000-0 +10000-3 0  9992
2 02253 085.4895 318.9406 0983081 347.0153 010.6995 08.11475669481400
1 02253U 66056A   98123.99740560 +.00000002 +00000-0 +10000-3 0  9994
2 02253 085.4888 318.8018 0981368 346.1920 011.3769 08.11475592481488
1 02253U 66056A   98125.47655682 +.00000002 +00000-0 +10000-3 0  9999
2 02253 085.4885 318.5922 0978696 344.9284 012.4172 08.11475062481601
1 02253U 66056A   98125.59982080  .00000002  00000-0  10000-3 0  9997
2 02253 085.4870 318.5753 0978415 344.8211 012.5063 08.11474823481610
1 02253U 66056A   98125.96960781 +.00000002 +00000-0 +10000-3 0  9992
2 02253 085.4855 318.5229 0977632 344.5286 012.7558 08.11475419481646
1 02253U 66056A   98126.46265646  .00000002  00000-0  10000-3 0  9996
2 02253 085.4856 318.4533 0977120 344.0918 013.1167 08.11475506481685
1 02253U 66056A   98126.95570897 +.00000002 +00000-0 +10000-3 0  9997
2 02253 085.4834 318.3840 0976339 343.6708 013.4657 08.11475207481724
1 02253U 66056A   98127.94180880 +.00000002 +00000-0 +10000-3 0  9996
2 02253 085.4679 318.2465 0968859 342.8969 014.1399 08.11477095481808
1 02253U 66056A   98129.05116575 +.00000002 +00000-0 +10000-3 0  9990
2 02253 085.4659 318.0893 0967333 341.9305 014.9285 08.11476930481897
1 02253U 66056A   98130.03726025 +.00000002 +00000-0 +10000-3 0  9997
2 02253 085.4631 317.9498 0965063 341.0966 015.6251 08.11477676481976
1 02253U 66056A   98130.90009311  .00000002  00000-0  10000-3 0  9995
2 02253 085.4600 317.8288 0962659 340.3406 016.2619 08.11478098482040
1 02253U 66056A   98131.02335419 +.00000002 +00000-0 +10000-3 0  9990
2 02253 085.4593 317.8110 0962478 340.2324 016.3488 08.11478093482053
1 02253U 66056A   98132.00944561 +.00000002 +00000-0 +10000-3 0  9993
2 02253 085.4481 317.6744 0954093 339.3097 017.1439 08.11478428482136
1 02253U 66056A   98132.99553909 +.00000002 +00000-0 +10000-3 0  9993
2 02253 085.4448 317.5325 0952219 338.4134 017.8962 08.11479018482216
1 02253U 66056A   98133.98163152 +.00000002 +00000-0 +10000-3 0  9990
2 02253 085.4424 317.3919 0950698 337.5117 018.6531 08.11479647482294
1 02253U 66056A   98135.09099108 +.00000002 +00000-0 +10000-3 0  9993
2 02253 085.4431 317.2342 0949680 336.5257 019.4800 08.11479614482386
1 02253U 66056A   98135.58403038  .00000002  00000-0  10000-3 0  9998
2 02253 085.4433 317.1644 0948101 336.0356 019.8963 08.11480565482420
1 02253U 66056A   98136.07707934 +.00000002 +00000-0 +10000-3 0  9995
2 02253 085.4413 317.0929 0947999 335.6003 020.2598 08.11480488482469
1 02253U 66056A   98136.57011995  .00000002  00000-0  10000-3 0  9995
2 02253 085.4409 317.0230 0946310 335.1180 020.6701 08.11481119482503
1 02253U 66056A   98136.93990653 +.00000002 +00000-0 +10000-3 0  9992
2 02253 085.4403 316.9698 0946154 334.7854 020.9479 08.11481014482534
1 02253U 66056A   98137.55620348  .00000002  00000-0  10000-3 0  9992
2 02253 085.4319 316.8828 0940365 334.1240 021.5282 08.11483164482587
1 02253U 66056A   98137.92599164 +.00000002 +00000-0 +10000-3 0  9994
2 02253 085.4299 316.8286 0939685 333.7595 021.8381 08.11482398482618
1 02253U 66056A   98138.91208802 +.00000002 +00000-0 +10000-3 0  9990
2 02253 085.4279 316.6881 0938480 332.8572 022.6027 08.11482117482695
1 02253U 66056A   98139.52838152  .00000002  00000-0  10000-3 0  9995
2 02253 085.4195 316.6018 0934321 332.1165 023.2445 08.11483725482748
1 02253U 66056A   98140.02143042 +.00000002 +00000-0 +10000-3 0  9999
2 02253 085.4157 316.5298 0932964 331.5876 023.7190 08.11485010482783
1 02253U 66056A   98141.00750657 +.00000002 +00000-0 +10000-3 0  9994
2 02253 085.4133 316.3915 0929629 330.5690 024.5699 08.11485562482862
1 02253U 66056A   98141.50054691  .00000002  00000-0  10000-3 0  9994
2 02253 085.4106 316.3226 0928388 330.0924 024.9796 08.11486618482903
1 02253U 66056A   98141.99359551 +.00000002 +00000-0 +10000-3 0  9990
2 02253 085.4110 316.2517 0928457 329.6304 025.3682 08.11485861482945
1 02253U 66056A   98142.85642116  .00000002  00000-0  10000-3 0  9998
2 02253 085.4083 316.1297 0924078 328.6017 026.2657 08.11484334483018
1 02253U 66056A   98142.97968090 +.00000002 +00000-0 +10000-3 0  9993
2 02253 085.4094 316.1110 0924118 328.4818 026.3670 08.11484714483025
1 02253U 66056A   98143.59598123  .00000001  00000-0  10000-3 0  9997
2 02253 085.4057 316.0253 0923069 327.8997 026.8687 08.11486461483075
1 02253U 66056A   98143.96576942 +.00000001 +00000-0 +10000-3 0  9993
2 02253 085.4072 315.9725 0923037 327.5046 027.2019 08.11485047483108
1 02253U 66056A   98144.45879863  .00000001  00000-0  10000-3 0  9996
2 02253 085.4050 315.9040 0921638 326.8900 027.7350 08.11489430483147
1 02253U 66056A   98144.82857349  .00000001  00000-0  10000-3 0  9992
2 02253 085.4035 315.8490 0920896 326.4999 028.0690 08.11490798483170
1 02253U 66056A   98144.95183505 +.00000001 +00000-0 +10000-3 0  9992
2 02253 085.4040 315.8327 0919657 326.3094 028.2450 08.11490887483189
1 02253U 66056A   98145.93792120  .00000001  00000-0  10000-3 0  9990
2 02253 085.4032 315.6922 0918962 325.3656 029.0461 08.11490472483260
1 02253U 66056A   98146.92401191 +.00000001 +00000-0 +10000-3 0  9995
2 02253 085.3978 315.5534 0916941 324.3067 029.9641 08.11488911483349
1 02253U 66056A   98148.03335407 +.00000001 +00000-0 +10000-3 0  9995
2 02253 085.3935 315.3977 0915425 323.1137 031.0156 08.11491628483436
1 02253U 66056A   98148.89617207 +.00000001 +00000-0 +10000-3 0  9990
2 02253 085.3909 315.2752 0914438 322.2052 031.7884 08.11492341483502
1 02253U 66056A   98149.51245975  .00000622  00000-0  10000-3 0  9998
2 02253 085.3876 315.1853 0910851 321.2565 032.6346 08.11496329483557
1 02253U 66056A   98150.00549778 +.00000001 +00000-0 +10000-3 0  9993
2 02253 085.3860 315.1145 0911699 320.7711 033.0265 08.11493136483594
1 02253U 66056A   98150.49853365  .00000001  00000-0  10000-3 0  9996
2 02253 085.3846 315.0441 0910698 320.2555 033.4850 08.11494966483636
1 02253U 66056A   98150.86830782  .00000001  00000-0  10000-3 0  9995
2 02253 085.3846 314.9951 0908594 319.6247 034.0583 08.11494162483663
1 02253U 66056A   98150.86831082 +.00000001 +00000-0 +10000-3 0  9999
2 02253 085.3846 314.9951 0908594 319.6247 034.0671 08.11494162483661
1 02253U 66056A   98150.86832380  .00000001  00000-0  10000-3 0  9991
2 02253 085.3818 314.9923 0909880 319.7677 033.9100 08.11490050483663
1 02253U 66056A   98151.97764828 +.00000001 +00000-0 +10000-3 0  9995
2 02253 085.3814 314.8356 0908243 318.4641 035.0469 08.11494049483750
1 02253U 66056A   98152.47068771  .00000001  00000-0  10000-3 0  9995
2 02253 085.3804 314.7652 0907987 318.0088 035.4461 08.11495418483793
1 02253U 66056A   98152.84047253  .00000001  00000-0  10000-3 0  9998
2 02253 085.3801 314.7124 0908129 317.4783 035.9027 08.11493140483825
1 02253U 66056A   98152.96373455 +.00000001 +00000-0 +10000-3 0  9997
2 02253 085.3801 314.6946 0908077 317.3582 036.0061 08.11492732483831
1 02253U 66056A   98153.45676590  .00000001  00000-0  10000-3 0  9998
2 02253 085.3779 314.6242 0908445 316.8599 036.4415 08.11497199483878
1 02253U 66056A   98153.94979564 +.00000001 +00000-0 +10000-3 0  9999
2 02253 085.3767 314.5530 0907466 316.2651 036.9670 08.11500169483914
1 02253U 66056A   98154.44282985 -.00000599  00000-0  10000-3 0  9992
2 02253 085.3768 314.4862 0907820 315.3262 037.7963 08.11500683483953
1 02253U 66056A   98154.93586875 +.00000001 +00000-0 +10000-3 0  9998
2 02253 085.3741 314.4123 0907218 315.1751 037.9210 08.11502213483998
1 02253U 66056A   98155.79868471  .00000001  00000-0  10000-3 0  9998
2 02253 085.3735 314.2885 0905287 314.2684 038.7238 08.11502956484065
1 02253U 66056A   98155.92194364 +.00000001 +00000-0 +10000-3 0  9996
2 02253 085.3752 314.2716 0906120 314.0264 038.9380 08.11504005484074
1 02253U 66056A   98156.78476830  .00000001  00000-0  10000-3 0  9992
2 02253 085.3793 314.1474 0907007 313.0812 039.7429 08.11498007484147
1 02253U 66056A   98156.90803034 +.00000001 +00000-0 +10000-3 0  9996
2 02253 085.3793 314.1305 0907912 312.8786 039.9315 08.11499516484155
1 02253U 66056A   98157.52431018  .00000001  00000-0  10000-3 0  9994
2 02253 085.3781 314.0423 0906942 312.1526 040.5698 08.11503402484207
1 02253U 66056A   98157.89408102 +.00000001 +00000-0 +10000-3 0  9992
2 02253 085.3766 313.9896 0908718 311.6825 040.9569 08.11504943484236
1 02253U 66056A   98158.51037434  .00000001  00000-0  10000-3 0  9998
2 02253 085.3841 313.9004 0908062 311.0282 041.5540 08.11507073484282
1 02253U 66056A   98158.88014245 +.00000001 +00000-0 +10000-3 0  9993
2 02253 085.3775 313.8490 0907384 310.4735 042.0339 08.11507117484313
1 02253U 66056A   98159.86621196 +.00000001 +00000-0 +10000-3 0  9991
2 02253 085.3670 313.7097 0906807 309.2596 043.1015 08.11505095484393
1 02253U 66056A   98160.48249544  .00000001  00000-0  10000-3 0  9994
2 02253 085.3671 313.6216 0906574 308.5758 043.7173 08.11509267484441
1 02253U 66056A   98160.85227374  .00000001  00000-0  10000-3 0  9992
2 02253 085.3634 313.5711 0905897 308.0736 044.1675 08.11508083484477
1 02253U 66056A   98160.97553315 +.00000001 +00000-0 +10000-3 0  9992
2 02253 085.3627 313.5543 0906204 307.9027 044.3195 08.11508262484485
